{
  "norad_id": 62605,
  "name": "STARLINK-32742",
  "history": [
    {
      "epoch": "2026-03-28T11:52:18.371712Z",
      "apogee_km": 484.8802985823668,
      "perigee_km": 481.0216227132978,
      "latitude_deg": -3.6969869367312404e-05,
      "longitude_deg": 167.4452197444207,
      "height_km": 482.7764051471084,
      "semi_major_axis_km": 6861.087960647832,
      "eccentricity": 0.0002812,
      "inclination_deg": 43.0036,
      "raan_deg": 171.4361,
      "arg_perigee_deg": 268.5947,
      "mean_anomaly_deg": 91.4582,
      "mean_motion_rev_day": 15.27612774
    }
  ]
}