{"fetched_at":"2026-03-29T02:12:04Z","count":15717,"tles":[{"name":"STARLINK-32742","line1":"1 62605U 25008U   26087.49465708  .00062055  00000+0  22433-2 0  9993","line2":"2 62605  43.0036 171.4361 0002812 268.5947  91.4582 15.27612774 68492","category":"Starlink"}]}